[
    {
        "Altitude(m)": 717760.0460834517,
        "Argument of Periapsis(deg)": 0.0022780242373254137,
        "Eccentricity": 0.0,
        "Inclination(deg)": 45.0,
        "Latitude(deg)": -44.85536237099163,
        "Longitude(deg)": -68.39116901940416,
        "Mean Anomaly(deg)": -95.87515667050387,
        "RAAN(deg)": 129.99784961170838,
        "Satellite Name": "Constellation 1 588",
        "Satellite Number": 588,
        "Semi-Major Axis(m)": 7083131.272910544,
        "Time(s)": 38
    },
    {
        "Altitude(m)": 717762.5633920487,
        "Argument of Periapsis(deg)": 0.002337972243570819,
        "Eccentricity": 0.0,
        "Inclination(deg)": 45.0,
        "Latitude(deg)": -44.86149254075721,
        "Longitude(deg)": -68.31051507098228,
        "Mean Anomaly(deg)": -95.81445553025388,
        "RAAN(deg)": 129.9977930225428,
        "Satellite Name": "Constellation 1 588",
        "Satellite Number": 588,
        "Semi-Major Axis(m)": 7083131.272910544,
        "Time(s)": 39
    },
    {
        "Altitude(m)": 717765.0547377694,
        "Argument of Periapsis(deg)": 0.0023979202498162246,
        "Eccentricity": 0.0,
        "Inclination(deg)": 45.0,
        "Latitude(deg)": -44.8675598046582,
        "Longitude(deg)": -68.22984326262632,
        "Mean Anomaly(deg)": -95.75375439000405,
        "RAAN(deg)": 129.9977364333772,
        "Satellite Name": "Constellation 1 588",
        "Satellite Number": 588,
        "Semi-Major Axis(m)": 7083131.272910544,
        "Time(s)": 40
    },
    {
        "Altitude(m)": 717767.5201113918,
        "Argument of Periapsis(deg)": 0.00245786825606163,
        "Eccentricity": 0.0,
        "Inclination(deg)": 45.0,
        "Latitude(deg)": -44.8735641364833,
        "Longitude(deg)": -68.14915377111834,
        "Mean Anomaly(deg)": -95.69305324975409,
        "RAAN(deg)": 129.99767984421166,
        "Satellite Name": "Constellation 1 588",
        "Satellite Number": 588,
        "Semi-Major Axis(m)": 7083131.272910544,
        "Time(s)": 41
    },
    {
        "Altitude(m)": 717769.9595038036,
        "Argument of Periapsis(deg)": 0.002517816262307036,
        "Eccentricity": 0.0,
        "Inclination(deg)": 45.0,
        "Latitude(deg)": -44.879505510279365,
        "Longitude(deg)": -68.06844677354593,
        "Mean Anomaly(deg)": -95.63235210950428,
        "RAAN(deg)": 129.99762325504608,
        "Satellite Name": "Constellation 1 588",
        "Satellite Number": 588,
        "Semi-Major Axis(m)": 7083131.272910544,
        "Time(s)": 42
    },
    {
        "Altitude(m)": 717772.372905971,
        "Argument of Periapsis(deg)": 0.0025777642685524413,
        "Eccentricity": 0.0,
        "Inclination(deg)": 45.0,
        "Latitude(deg)": -44.88538390035215,
        "Longitude(deg)": -67.98772244729841,
        "Mean Anomaly(deg)": -95.5716509692543,
        "RAAN(deg)": 129.99756666588053,
        "Satellite Name": "Constellation 1 588",
        "Satellite Number": 588,
        "Semi-Major Axis(m)": 7083131.272910544,
        "Time(s)": 43
    },
    {
        "Altitude(m)": 717774.7603089688,
        "Argument of Periapsis(deg)": 0.002637712274797847,
        "Eccentricity": 0.0,
        "Inclination(deg)": 45.0,
        "Latitude(deg)": -44.89119928126685,
        "Longitude(deg)": -67.90698113816254,
        "Mean Anomaly(deg)": -95.51094982900439,
        "RAAN(deg)": 129.99751007671495,
        "Satellite Name": "Constellation 1 588",
        "Satellite Number": 588,
        "Semi-Major Axis(m)": 7083131.272910544,
        "Time(s)": 44
    },
    {
        "Altitude(m)": 717777.1217039613,
        "Argument of Periapsis(deg)": 0.0026976602810432526,
        "Eccentricity": 0.0,
        "Inclination(deg)": 45.0,
        "Latitude(deg)": -44.89695162784808,
        "Longitude(deg)": -67.82622268792932,
        "Mean Anomaly(deg)": -95.45024868875454,
        "RAAN(deg)": 129.99745348754936,
        "Satellite Name": "Constellation 1 588",
        "Satellite Number": 588,
        "Semi-Major Axis(m)": 7083131.272910544,
        "Time(s)": 45
    },
    {
        "Altitude(m)": 717779.4570822123,
        "Argument of Periapsis(deg)": 0.0027576082872886585,
        "Eccentricity": 0.0,
        "Inclination(deg)": 45.0,
        "Latitude(deg)": -44.902640915181316,
        "Longitude(deg)": -67.7454474429755,
        "Mean Anomaly(deg)": -95.3895475485047,
        "RAAN(deg)": 129.9973968983838,
        "Satellite Name": "Constellation 1 588",
        "Satellite Number": 588,
        "Semi-Major Axis(m)": 7083131.272910544,
        "Time(s)": 46
    },
    {
        "Altitude(m)": 717781.7664350807,
        "Argument of Periapsis(deg)": 0.0028175562935340644,
        "Eccentricity": 0.0,
        "Inclination(deg)": 45.0,
        "Latitude(deg)": -44.90826711861264,
        "Longitude(deg)": -67.66465558187127,
        "Mean Anomaly(deg)": -95.32884640825472,
        "RAAN(deg)": 129.99734030921823,
        "Satellite Name": "Constellation 1 588",
        "Satellite Number": 588,
        "Semi-Major Axis(m)": 7083131.272910544,
        "Time(s)": 47
    },
    {
        "Altitude(m)": 717784.0497540182,
        "Argument of Periapsis(deg)": 0.00287750429977947,
        "Eccentricity": 0.0,
        "Inclination(deg)": 45.0,
        "Latitude(deg)": -44.913830213749634,
        "Longitude(deg)": -67.58384728347515,
        "Mean Anomaly(deg)": -95.2681452680048,
        "RAAN(deg)": 129.99728372005268,
        "Satellite Name": "Constellation 1 588",
        "Satellite Number": 588,
        "Semi-Major Axis(m)": 7083131.272910544,
        "Time(s)": 48
    },
    {
        "Altitude(m)": 717786.3070305785,
        "Argument of Periapsis(deg)": 0.002937452306024875,
        "Eccentricity": 0.0,
        "Inclination(deg)": 45.0,
        "Latitude(deg)": -44.91933017646164,
        "Longitude(deg)": -67.50302272693061,
        "Mean Anomaly(deg)": -95.20744412775497,
        "RAAN(deg)": 129.99722713088713,
        "Satellite Name": "Constellation 1 588",
        "Satellite Number": 588,
        "Semi-Major Axis(m)": 7083131.272910544,
        "Time(s)": 49
    },
    {
        "Altitude(m)": 717788.5382564034,
        "Argument of Periapsis(deg)": 0.0029974003122702807,
        "Eccentricity": 0.0,
        "Inclination(deg)": 45.0,
        "Latitude(deg)": -44.9247669828805,
        "Longitude(deg)": -67.42218209166313,
        "Mean Anomaly(deg)": -95.14674298750504,
        "RAAN(deg)": 129.99717054172152,
        "Satellite Name": "Constellation 1 588",
        "Satellite Number": 588,
        "Semi-Major Axis(m)": 7083131.272910544,
        "Time(s)": 50
    },
    {
        "Altitude(m)": 717790.7434232401,
        "Argument of Periapsis(deg)": 0.0030573483185156866,
        "Eccentricity": 0.0,
        "Inclination(deg)": 45.0,
        "Latitude(deg)": -44.93014060940081,
        "Longitude(deg)": -67.34132555737774,
        "Mean Anomaly(deg)": -95.08604184725509,
        "RAAN(deg)": 129.99711395255596,
        "Satellite Name": "Constellation 1 588",
        "Satellite Number": 588,
        "Semi-Major Axis(m)": 7083131.272910544,
        "Time(s)": 51
    },
    {
        "Altitude(m)": 717792.9225229209,
        "Argument of Periapsis(deg)": 0.003117296324761092,
        "Eccentricity": 0.0,
        "Inclination(deg)": 45.0,
        "Latitude(deg)": -44.93545103268063,
        "Longitude(deg)": -67.26045347215317,
        "Mean Anomaly(deg)": -95.02534070700521,
        "RAAN(deg)": 129.99705736339038,
        "Satellite Name": "Constellation 1 588",
        "Satellite Number": 588,
        "Semi-Major Axis(m)": 7083131.272910544,
        "Time(s)": 52
    },
    {
        "Altitude(m)": 717795.0755473843,
        "Argument of Periapsis(deg)": 0.0031772443310064975,
        "Eccentricity": 0.0,
        "Inclination(deg)": 45.0,
        "Latitude(deg)": -44.94069822964165,
        "Longitude(deg)": -67.17956568004948,
        "Mean Anomaly(deg)": -94.96463956675537,
        "RAAN(deg)": 129.99700077422483,
        "Satellite Name": "Constellation 1 588",
        "Satellite Number": 588,
        "Semi-Major Axis(m)": 7083131.272910544,
        "Time(s)": 53
    },
    {
        "Altitude(m)": 717797.2024886608,
        "Argument of Periapsis(deg)": 0.0032371923372519038,
        "Eccentricity": 0.0,
        "Inclination(deg)": 45.0,
        "Latitude(deg)": -44.94588217747001,
        "Longitude(deg)": -67.09866252968907,
        "Mean Anomaly(deg)": -94.90393842650548,
        "RAAN(deg)": 129.99694418505928,
        "Satellite Name": "Constellation 1 588",
        "Satellite Number": 588,
        "Semi-Major Axis(m)": 7083131.272910544,
        "Time(s)": 54
    },
    {
        "Altitude(m)": 717799.3033388783,
        "Argument of Periapsis(deg)": 0.0032971403434973088,
        "Eccentricity": 0.0,
        "Inclination(deg)": 45.0,
        "Latitude(deg)": -44.951002853616636,
        "Longitude(deg)": -67.0177442018648,
        "Mean Anomaly(deg)": -94.84323728625554,
        "RAAN(deg)": 129.99688759589367,
        "Satellite Name": "Constellation 1 588",
        "Satellite Number": 588,
        "Semi-Major Axis(m)": 7083131.272910544,
        "Time(s)": 55
    },
    {
        "Altitude(m)": 717801.3780902595,
        "Argument of Periapsis(deg)": 0.0033570883497427146,
        "Eccentricity": 0.0,
        "Inclination(deg)": 45.0,
        "Latitude(deg)": -44.95606023579761,
        "Longitude(deg)": -66.9368108776341,
        "Mean Anomaly(deg)": -94.78253614600568,
        "RAAN(deg)": 129.99683100672812,
        "Satellite Name": "Constellation 1 588",
        "Satellite Number": 588,
        "Semi-Major Axis(m)": 7083131.272910544,
        "Time(s)": 56
    }
]